{"type": "FeatureCollection", "features": [ {"type": "Feature", "properties": {"norad_id": 34570, "name": "COSMOS 2251 DEB", "group": "cosmos-2251-debris", "lat": -36.49373451725998, "lon": -139.59552415796404, "alt_km": 1025.6132499853202, "timestamp": "2025-12-04T10:51:50.500600+00:00", "meta": {"OBJECT_NAME": "COSMOS 2251 DEB", "OBJECT_ID": "1993-036VG", "EPOCH": "2025-12-03T09:54:15.253056", "MEAN_MOTION": 13.99796062, "ECCENTRICITY": 0.01903141, "INCLINATION": 73.958, "RA_OF_ASC_NODE": 234.502, "ARG_OF_PERICENTER": 119.0694, "MEAN_ANOMALY": 4.9485, "EPHEMERIS_TYPE": 0, "CLASSIFICATION_TYPE": "U", "NORAD_CAT_ID": 34570, "ELEMENT_SET_NO": 999, "REV_AT_EPOCH": 85470, "BSTAR": 0.00063026202, "MEAN_MOTION_DOT": 1.057e-05, "MEAN_MOTION_DDOT": 0}, "tle": {"line1": "1 34570U 93036VG  25337.41267654  .00001057  00000+0  63026-3 0  9997", "line2": "2 34570  73.9580 234.5020 0190314 119.0694   4.9485 13.99796062854703"}}, "geometry": {"type": "Point", "coordinates": [-139.59552415796404, -36.49373451725998]}}, {"type": "Feature", "properties": {"norad_id": 34571, "name": "COSMOS 2251 DEB", "group": "cosmos-2251-debris", "lat": 23.921098697930486, "lon": 10.66619230819682, "alt_km": 720.7175499685036, "timestamp": "2025-12-04T10:51:50.500610+00:00", "meta": {"OBJECT_NAME": "COSMOS 2251 DEB", "OBJECT_ID": "1993-036VH", "EPOCH": "2025-12-03T00:59:43.530720", "MEAN_MOTION": 14.48571332, "ECCENTRICITY": 0.00666537, "INCLINATION": 74.0399, "RA_OF_ASC_NODE": 200.6016, "ARG_OF_PERICENTER": 237.8665, "MEAN_ANOMALY": 121.6017, "EPHEMERIS_TYPE": 0, "CLASSIFICATION_TYPE": "U", "NORAD_CAT_ID": 34571, "ELEMENT_SET_NO": 999, "REV_AT_EPOCH": 87153, "BSTAR": 0.002487781, "MEAN_MOTION_DOT": 9.601e-05, "MEAN_MOTION_DDOT": 0}, "tle": {"line1": "1 34571U 93036VH  25337.04147605  .00009601  00000+0  24878-2 0  9994", "line2": "2 34571  74.0399 200.6016 0066653 237.8665 121.6017 14.48571332871532"}}, "geometry": {"type": "Point", "coordinates": [10.66619230819682, 23.921098697930486]}}, {"type": "Feature", "properties": {"norad_id": 34572, "name": "COSMOS 2251 DEB", "group": "cosmos-2251-debris", "lat": -15.47589338405553, "lon": 126.5375112394971, "alt_km": 764.6527102936561, "timestamp": "2025-12-04T10:51:50.500620+00:00", "meta": {"OBJECT_NAME": "COSMOS 2251 DEB", "OBJECT_ID": "1993-036VJ", "EPOCH": "2025-12-03T10:14:07.080576", "MEAN_MOTION": 14.49672328, "ECCENTRICITY": 0.00639869, "INCLINATION": 74.0096, "RA_OF_ASC_NODE": 133.0197, "ARG_OF_PERICENTER": 208.2005, "MEAN_ANOMALY": 181.8869, "EPHEMERIS_TYPE": 0, "CLASSIFICATION_TYPE": "U", "NORAD_CAT_ID": 34572, "ELEMENT_SET_NO": 999, "REV_AT_EPOCH": 87243, "BSTAR": 0.0038394199, "MEAN_MOTION_DOT": 0.00015164, "MEAN_MOTION_DDOT": 0}, "tle": {"line1": "1 34572U 93036VJ  25337.42647084  .00015164  00000+0  38394-2 0  9992", "line2": "2 34572  74.0096 133.0197 0063986 208.2005 181.8869 14.49672328872433"}}, "geometry": {"type": "Point", "coordinates": [126.5375112394971, -15.47589338405553]}}, {"type": "Feature", "properties": {"norad_id": 34574, "name": "COSMOS 2251 DEB", "group": "cosmos-2251-debris", "lat": -24.68376071955607, "lon": 51.64056441838154, "alt_km": 679.6998362602872, "timestamp": "2025-12-04T10:51:50.500630+00:00", "meta": {"OBJECT_NAME": "COSMOS 2251 DEB", "OBJECT_ID": "1993-036VL", "EPOCH": "2025-12-03T22:27:16.151904", "MEAN_MOTION": 14.70441699, "ECCENTRICITY": 0.0067091, "INCLINATION": 74.07, "RA_OF_ASC_NODE": 60.1843, "ARG_OF_PERICENTER": 84.2015, "MEAN_ANOMALY": 34.8971, "EPHEMERIS_TYPE": 0, "CLASSIFICATION_TYPE": "U", "NORAD_CAT_ID": 34574, "ELEMENT_SET_NO": 999, "REV_AT_EPOCH": 88649, "BSTAR": 0.0020661, "MEAN_MOTION_DOT": 0.00012953, "MEAN_MOTION_DDOT": 0}, "tle": {"line1": "1 34574U 93036VL  25337.93560361  .00012953  00000+0  20661-2 0  9993", "line2": "2 34574  74.0700  60.1843 0067091  84.2015  34.8971 14.70441699886490"}}, "geometry": {"type": "Point", "coordinates": [51.64056441838154, -24.68376071955607]}}, {"type": "Feature", "properties": {"norad_id": 34576, "name": "COSMOS 2251 DEB", "group": "cosmos-2251-debris", "lat": 34.80847097230174, "lon": 165.37712199703282, "alt_km": 707.5118894472043, "timestamp": "2025-12-04T10:51:50.500640+00:00", "meta": {"OBJECT_NAME": "COSMOS 2251 DEB", "OBJECT_ID": "1993-036VN", "EPOCH": "2025-12-03T11:44:15.751680", "MEAN_MOTION": 14.55313315, "ECCENTRICITY": 0.00078434, "INCLINATION": 74.0325, "RA_OF_ASC_NODE": 155.7197, "ARG_OF_PERICENTER": 289.1778, "MEAN_ANOMALY": 100.8938, "EPHEMERIS_TYPE": 0, "CLASSIFICATION_TYPE": "U", "NORAD_CAT_ID": 34576, "ELEMENT_SET_NO": 999, "REV_AT_EPOCH": 88332, "BSTAR": 0.0011687279, "MEAN_MOTION_DOT": 5.044e-05, "MEAN_MOTION_DDOT": 0}, "tle": {"line1": "1 34576U 93036VN  25337.48907120  .00005044  00000+0  11687-2 0  9994", "line2": "2 34576  74.0325 155.7197 0007843 289.1778 100.8938 14.55313315883321"}}, "geometry": {"type": "Point", "coordinates": [165.37712199703282, 34.80847097230174]}}, {"type": "Feature", "properties": {"norad_id": 34577, "name": "COSMOS 2251 DEB", "group": "cosmos-2251-debris", "lat": -40.53879703322141, "lon": 15.387150111416984, "alt_km": 257.07683512942276, "timestamp": "2025-12-04T10:51:50.500650+00:00", "meta": {"OBJECT_NAME": "COSMOS 2251 DEB", "OBJECT_ID": "1993-036VP", "EPOCH": "2025-12-03T15:57:51.278976", "MEAN_MOTION": 15.9854535, "ECCENTRICITY": 0.00051065, "INCLINATION": 73.9867, "RA_OF_ASC_NODE": 183.0388, "ARG_OF_PERICENTER": 128.5361, "MEAN_ANOMALY": 231.6335, "EPHEMERIS_TYPE": 0, "CLASSIFICATION_TYPE": "U", "NORAD_CAT_ID": 34577, "ELEMENT_SET_NO": 999, "REV_AT_EPOCH": 89384, "BSTAR": 0.010022394, "MEAN_MOTION_DOT": 0.03828883, "MEAN_MOTION_DDOT": 0.020681734}, "tle": {"line1": "1 34577U 93036VP  25337.66517684  .03828883  20682-1  10022-1 0  9995", "line2": "2 34577  73.9867 183.0388 0005106 128.5361 231.6335 15.98545350893847"}}, "geometry": {"type": "Point", "coordinates": [15.387150111416984, -40.53879703322141]}}, {"type": "Feature", "properties": {"norad_id": 34579, "name": "COSMOS 2251 DEB", "group": "cosmos-2251-debris", "lat": -14.455559076307608, "lon": 63.546926686386, "alt_km": 753.467865814132, "timestamp": "2025-12-04T10:51:50.500660+00:00", "meta": {"OBJECT_NAME": "COSMOS 2251 DEB", "OBJECT_ID": "1993-036VR", "EPOCH": "2025-12-03T19:16:22.593792", "MEAN_MOTION": 14.45262821, "ECCENTRICITY": 0.00275353, "INCLINATION": 74.0536, "RA_OF_ASC_NODE": 240.5288, "ARG_OF_PERICENTER": 310.5871, "MEAN_ANOMALY": 106.0208, "EPHEMERIS_TYPE": 0, "CLASSIFICATION_TYPE": "U", "NORAD_CAT_ID": 34579, "ELEMENT_SET_NO": 999, "REV_AT_EPOCH": 88045, "BSTAR": 0.00073345757, "MEAN_MOTION_DOT": 2.559e-05, "MEAN_MOTION_DDOT": 0}, "tle": {"line1": "1 34579U 93036VR  25337.80303928  .00002559  00000+0  73346-3 0  9998", "line2": "2 34579  74.0536 240.5288 0027535 310.5871 106.0208 14.45262821880458"}}, "geometry": {"type": "Point", "coordinates": [63.546926686386, -14.455559076307608]}}, {"type": "Feature", "properties": {"norad_id": 34582, "name": "COSMOS 2251 DEB", "group": "cosmos-2251-debris", "lat": -12.78529074992916, "lon": 111.51606828039435, "alt_km": 782.0110845206709, "timestamp": "2025-12-04T10:51:50.500671+00:00", "meta": {"OBJECT_NAME": "COSMOS 2251 DEB", "OBJECT_ID": "1993-036VU", "EPOCH": "2025-12-03T14:00:41.526144", "MEAN_MOTION": 14.43245153, "ECCENTRICITY": 0.00473494, "INCLINATION": 74.0195, "RA_OF_ASC_NODE": 289.4025, "ARG_OF_PERICENTER": 41.7168, "MEAN_ANOMALY": 318.7583, "EPHEMERIS_TYPE": 0, "CLASSIFICATION_TYPE": "U", "NORAD_CAT_ID": 34582, "ELEMENT_SET_NO": 999, "REV_AT_EPOCH": 87815, "BSTAR": 0.00120737, "MEAN_MOTION_DOT": 4.094e-05, "MEAN_MOTION_DDOT": 0}, "tle": {"line1": "1 34582U 93036VU  25337.58381396  .00004094  00000+0  12074-2 0  9998", "line2": "2 34582  74.0195 289.4025 0047349  41.7168 318.7583 14.43245153878150"}}, "geometry": {"type": "Point", "coordinates": [111.51606828039435, -12.78529074992916]}}, {"type": "Feature", "properties": {"norad_id": 34588, "name": "COSMOS 2251 DEB", "group": "cosmos-2251-debris", "lat": -67.49566390244541, "lon": -120.06488050036535, "alt_km": 750.3571435042031, "timestamp": "2025-12-04T10:51:50.500682+00:00", "meta": {"OBJECT_NAME": "COSMOS 2251 DEB", "OBJECT_ID": "1993-036WA", "EPOCH": "2025-12-04T02:57:22.051296", "MEAN_MOTION": 14.41976435, "ECCENTRICITY": 0.0018926, "INCLINATION": 74.0438, "RA_OF_ASC_NODE": 284.2205, "ARG_OF_PERICENTER": 337.7806, "MEAN_ANOMALY": 38.7335, "EPHEMERIS_TYPE": 0, "CLASSIFICATION_TYPE": "U", "NORAD_CAT_ID": 34588, "ELEMENT_SET_NO": 999, "REV_AT_EPOCH": 87826, "BSTAR": 0.0010216, "MEAN_MOTION_DOT": 3.332e-05, "MEAN_MOTION_DDOT": 0}, "tle": {"line1": "1 34588U 93036WA  25338.12317189  .00003332  00000+0  10216-2 0  9994", "line2": "2 34588  74.0438 284.2205 0018926 337.7806  38.7335 14.41976435878263"}}, "geometry": {"type": "Point", "coordinates": [-120.06488050036535, -67.49566390244541]}}, {"type": "Feature", "properties": {"norad_id": 34589, "name": "COSMOS 2251 DEB", "group": "cosmos-2251-debris", "lat": -3.5591830959236512, "lon": 69.12469320868694, "alt_km": 770.6280671883005, "timestamp": "2025-12-04T10:51:50.500692+00:00", "meta": {"OBJECT_NAME": "COSMOS 2251 DEB", "OBJECT_ID": "1993-036WB", "EPOCH": "2025-12-03T07:25:49.764864", "MEAN_MOTION": 13.86042227, "ECCENTRICITY": 0.0251589, "INCLINATION": 73.9251, "RA_OF_ASC_NODE": 72.0992, "ARG_OF_PERICENTER": 17.3317, "MEAN_ANOMALY": 38.5525, "EPHEMERIS_TYPE": 0, "CLASSIFICATION_TYPE": "U", "NORAD_CAT_ID": 34589, "ELEMENT_SET_NO": 999, "REV_AT_EPOCH": 84581, "BSTAR": 0.0003275, "MEAN_MOTION_DOT": 4.6e-06, "MEAN_MOTION_DDOT": 0}, "tle": {"line1": "1 34589U 93036WB  25337.30960376  .00000460  00000+0  32750-3 0  9993", "line2": "2 34589  73.9251  72.0992 0251589  17.3317  38.5525 13.86042227845818"}}, "geometry": {"type": "Point", "coordinates": [69.12469320868694, -3.5591830959236512]}}]}